[{"OBJECT_NAME":"STARLINK-4470","OBJECT_ID":"2022-105H","EPOCH":"2026-03-09T16:19:57.988128","MEAN_MOTION":15.05645183,"ECCENTRICITY":0.00026506,"INCLINATION":97.6009,"RA_OF_ASC_NODE":311.1586,"ARG_OF_PERICENTER":84.6866,"MEAN_ANOMALY":275.4663,"EPHEMERIS_TYPE":0,"CLASSIFICATION_TYPE":"U","NORAD_CAT_ID":53655,"ELEMENT_SET_NO":999,"REV_AT_EPOCH":19329,"BSTAR":-2.7041053e-5,"MEAN_MOTION_DOT":-4.51e-6,"MEAN_MOTION_DDOT":0},{"OBJECT_NAME":"CZ-4B DEB","OBJECT_ID":"2008-053M","EPOCH":"2026-03-05T07:18:48.921696","MEAN_MOTION":15.08195439,"ECCENTRICITY":0.0017401,"INCLINATION":97.8281,"RA_OF_ASC_NODE":90.6528,"ARG_OF_PERICENTER":258.7901,"MEAN_ANOMALY":101.1371,"EPHEMERIS_TYPE":0,"CLASSIFICATION_TYPE":"U","NORAD_CAT_ID":44593,"ELEMENT_SET_NO":999,"REV_AT_EPOCH":67199,"BSTAR":0.00019653,"MEAN_MOTION_DOT":2.982e-5,"MEAN_MOTION_DDOT":0}]
